K23T28C 20.35  0.15 K24AH  99.08491  144.24378  217.54696    4.59303  0.2628641  0.24078336   2.5588907  9 MPO775471    10   1   11 days 0.14 M-v 3Ek Veres      2000          2023 TC28          20231016
K23T29P 19.77  0.15 K24AH 117.99649  176.87153  171.18042    1.04428  0.2020316  0.26648056   2.3916210  9 MPO775476    14   1   11 days 0.31 M-v 3Ek Veres      2000          2023 TP29          20231016
